[{"OBJECT_NAME":"STARLINK-36243","OBJECT_ID":"2025-298C","EPOCH":"2026-03-09T21:28:03.374400","MEAN_MOTION":14.98334013,"ECCENTRICITY":0.00013353,"INCLINATION":70.0023,"RA_OF_ASC_NODE":14.1188,"ARG_OF_PERICENTER":253.4431,"MEAN_ANOMALY":106.6581,"EPHEMERIS_TYPE":0,"CLASSIFICATION_TYPE":"U","NORAD_CAT_ID":67077,"ELEMENT_SET_NO":999,"REV_AT_EPOCH":1324,"BSTAR":0.00033175963,"MEAN_MOTION_DOT":3.868e-5,"MEAN_MOTION_DDOT":0},{"OBJECT_NAME":"COSMOS 886 DEB","OBJECT_ID":"1976-126BG","EPOCH":"2026-03-09T13:54:31.812768","MEAN_MOTION":13.63649783,"ECCENTRICITY":0.0613654,"INCLINATION":65.7771,"RA_OF_ASC_NODE":152.6562,"ARG_OF_PERICENTER":40.4996,"MEAN_ANOMALY":324.0089,"EPHEMERIS_TYPE":0,"CLASSIFICATION_TYPE":"U","NORAD_CAT_ID":9966,"ELEMENT_SET_NO":999,"REV_AT_EPOCH":35769,"BSTAR":0.00099474,"MEAN_MOTION_DOT":2.808e-5,"MEAN_MOTION_DDOT":0}]
